ONEWEB-0641             
1 55805U 23029K   24006.81514683  .00000094  00000+0  20184-3 0  9997
2 55805  87.9206 122.5906 0001920 109.8203 250.3137 13.19724470 41214
ONEWEB-0642             
1 55806U 23029L   24006.81041130  .00000021  00000+0  21067-4 0  9992
2 55806  87.9215 122.6077 0002805 116.0816 244.0605 13.19724363 41208
ONEWEB-0643             
1 55807U 23029M   24007.34813726  .00000209  00000+0  52937-3 0  9997
2 55807  87.8991 107.2509 0003173 105.6620 254.4860 13.14499281 42936
ONEWEB-0644             
1 55808U 23029N   24006.80567247  .00000083  00000+0  17454-3 0  9997
2 55808  87.9214 122.6015 0002367 111.2755 248.8631 13.19725465 41208
ONEWEB-0645             
1 55809U 23029P   24006.87755923 -.00000083  00000+0 -24084-3 0  9994
2 55809  87.9213 122.5904 0002089 122.8795 237.2539 13.19725834 41217
ONEWEB-0646             
1 55810U 23029Q   24006.83173062 -.00000096  00000+0 -27130-3 0  9999
2 55810  87.9211 122.6018 0002044 106.1684 253.9674 13.19724188 41190
ONEWEB-0648             
1 55811U 23029R   24006.78359213  .00000026  00000+0  35426-4 0  9997
2 55811  87.8986 107.3330 0002760 127.2426 232.8956 13.14502569 42157
ONEWEB-0649             
1 55812U 23029S   24006.87042645  .00000011  00000+0 -41981-5 0  9995
2 55812  87.9213 122.5930 0002167 118.0316 242.1036 13.19726007 41235
